COMMENT,ORIGINATOR,NORAD_CAT_ID,OBJECT_NAME,OBJECT_TYPE,CLASSIFICATION_TYPE,INTLDES,EPOCH,EPOCH_MICROSECONDS,MEAN_MOTION,ECCENTRICITY,INCLINATION,RA_OF_ASC_NODE,ARG_OF_PERICENTER,MEAN_ANOMALY,EPHEMERIS_TYPE,ELEMENT_SET_NO,REV_AT_EPOCH,BSTAR,MEAN_MOTION_DOT,MEAN_MOTION_DDOT,FILE,TLE_LINE0,TLE_LINE1,TLE_LINE2,OBJECT_ID,OBJECT_NUMBER,SEMIMAJOR_AXIS,PERIOD,APOGEE,PERIGEE,DECAYED
"GENERATED VIA SPACETRACK.ORG API","18 SPCS","51110","STARLINK-3344","PAYLOAD","U","22005G","2022-08-30 11:01:32","331072","15.0883618","0.0001726","53.2169","307.7351","46.6228","313.4908","0","999","3455","-0.000063716","-0.00001302","0","3551880","0 STARLINK-3344","1 51110U 22005G   22242.45940198 -.00001302  00000-0 -63716-4 0  9994","2 51110  53.2169 307.7351 0001726  46.6228 313.4908 15.08836180 34551","2022-005G","51110","6917.892","95.438","540.951","538.563","0"
"GENERATED VIA SPACETRACK.ORG API","18 SPCS","51110","STARLINK-3344","PAYLOAD","U","22005G","2022-08-30 14:12:18","645408","15.08835741","0.000174","53.2169","307.1405","46.541","313.5726","0","999","3457","-0.00006511","-0.00001324","0","3552179","0 STARLINK-3344","1 51110U 22005G   22242.59188247 -.00001324  00000-0 -65110-4 0  9992","2 51110  53.2169 307.1405 0001740  46.5410 313.5726 15.08835741 34576","2022-005G","51110","6917.893","95.438","540.962","538.555","0"
"GENERATED VIA SPACETRACK.ORG API","18 SPCS","51110","STARLINK-3344","PAYLOAD","U","22005G","2022-08-31 10:52:20","270496","15.08824281","0.000172","53.2162","303.2738","39.3333","320.7784","0","999","3581","-0.000076312","-0.00001502","0","3552340","0 STARLINK-3344","1 51110U 22005G   22243.45301239 -.00001502  00000-0 -76312-4 0  9990","2 51110  53.2162 303.2738 0001720  39.3333 320.7784 15.08824281 35816","2022-005G","51110","6917.928","95.439","540.983","538.604","0"
"GENERATED VIA SPACETRACK.ORG API","18 SPCS","51110","STARLINK-3344","PAYLOAD","U","22005G","2022-09-01 10:43:07","996512","15.08824551","0.0001791","53.2161","298.8138","41.6188","318.494","0","999","3485","0.00002087","0.00000044","0","3553574","0 STARLINK-3344","1 51110U 22005G   22244.44662033  .00000044  00000-0  20870-4 0  9998","2 51110  53.2161 298.8138 0001791  41.6188 318.4940 15.08824551 34851","2022-005G","51110","6917.928","95.439","541.032","538.554","0"
"GENERATED VIA SPACETRACK.ORG API","18 SPCS","51110","STARLINK-3344","PAYLOAD","U","22005G","2022-09-01 13:53:54","334176","15.08825254","0.0001803","53.216","298.2191","41.5017","318.6112","0","999","3598","0.00002575","0.00000122","0","3553790","0 STARLINK-3344","1 51110U 22005G   22244.57910109  .00000122  00000-0  25750-4 0  9991","2 51110  53.2160 298.2191 0001803  41.5017 318.6112 15.08825254 35986","2022-005G","51110","6917.925","95.438","541.038","538.543","0"
"GENERATED VIA SPACETRACK.ORG API","18 SPCS","51110","STARLINK-3344","PAYLOAD","U","22005G","2022-09-01 20:15:26","975808","15.08826246","0.0001819","53.2158","297.0296","40.8437","319.2691","0","999","3491","0.000026825","0.00000139","0","3554009","0 STARLINK-3344","1 51110U 22005G   22244.84406222  .00000139  00000-0  26825-4 0  9999","2 51110  53.2158 297.0296 0001819  40.8437 319.2691 15.08826246 34914","2022-005G","51110","6917.922","95.438","541.046","538.529","0"
"GENERATED VIA SPACETRACK.ORG API","18 SPCS","51110","STARLINK-3344","PAYLOAD","U","22005G","2022-09-02 10:33:55","493568","15.08826519","0.0001786","53.2163","294.354","44.2144","315.899","0","999","3500","0.00010033","0.00001308","0","3555279","0 STARLINK-3344","1 51110U 22005G   22245.44022562  .00001308  00000-0  10033-3 0  9999","2 51110  53.2163 294.3540 0001786  44.2144 315.8990 15.08826519 35006","2022-005G","51110","6917.922","95.438","541.022","538.551","0"
"GENERATED VIA SPACETRACK.ORG API","18 SPCS","51110","STARLINK-3344","PAYLOAD","U","22005G","2022-09-02 13:44:41","794080","15.08827857","0.0001797","53.2163","293.7593","45.0993","315.0145","0","999","3502","0.00010876","0.00001443","0","3555599","0 STARLINK-3344","1 51110U 22005G   22245.57270595  .00001443  00000-0  10876-3 0  9999","2 51110  53.2163 293.7593 0001797  45.0993 315.0145 15.08827857 35022","2022-005G","51110","6917.918","95.438","541.026","538.539","0"
"GENERATED VIA SPACETRACK.ORG API","18 SPCS","51110","STARLINK-3344","PAYLOAD","U","22005G","2022-09-03 12:00:05","628960","15.08837716","0.0001864","53.2162","289.5961","45.9446","314.17","0","999","3627","0.00014453","0.00002013","0","3556371","0 STARLINK-3344","1 51110U 22005G   22246.50006515  .00002013  00000-0  14453-3 0  9991","2 51110  53.2162 289.5961 0001864  45.9446 314.1700 15.08837716 36270","2022-005G","51110","6917.887","95.438","541.042","538.463","0"
"GENERATED VIA SPACETRACK.ORG API","18 SPCS","51110","STARLINK-3344","PAYLOAD","U","22005G","2022-09-03 12:00:05","628960","15.08837716","0.0001864","53.2162","289.5961","45.9446","314.17","0","999","3516","0.00014453","0.00002013","0","3556494","0 STARLINK-3344","1 51110U 22005G   22246.50006515  .00002013  00000-0  14453-3 0  9991","2 51110  53.2162 289.5961 0001864  45.9446 314.1700 15.08837716 35167","2022-005G","51110","6917.887","95.438","541.042","538.463","0"
"GENERATED VIA SPACETRACK.ORG API","18 SPCS","51110","STARLINK-3344","PAYLOAD","U","22005G","2022-09-03 19:57:01","51488","15.08842706","0.0001891","53.2162","288.1094","46.0455","314.0693","0","999","3521","0.00016066","0.0000227","0","3556957","0 STARLINK-3344","1 51110U 22005G   22246.83126217  .00002270  00000-0  16066-3 0  9996","2 51110  53.2162 288.1094 0001891  46.0455 314.0693 15.08842706 35212","2022-005G","51110","6917.872","95.437","541.045","538.429","0"
"GENERATED VIA SPACETRACK.ORG API","18 SPCS","51110","STARLINK-3344","PAYLOAD","U","22005G","2022-09-04 10:15:28","608480","15.08851725","0.0001915","53.2162","285.4329","46.9726","313.1426","0","999","3641","0.00016399","0.00002324","0","3557676","0 STARLINK-3344","1 51110U 22005G   22247.42741445  .00002324  00000-0  16399-3 0  9997","2 51110  53.2162 285.4329 0001915  46.9726 313.1426 15.08851725 36418","2022-005G","51110","6917.845","95.437","541.034","538.385","0"
"GENERATED VIA SPACETRACK.ORG API","18 SPCS","51110","STARLINK-3344","PAYLOAD","U","22005G","2022-09-04 11:50:51","529344","15.08856375","0.0001911","53.2161","285.1355","47.2824","312.8328","0","999","3531","0.0002106","0.00003067","0","3557975","0 STARLINK-3344","1 51110U 22005G   22247.49365196  .00003067  00000-0  21060-3 0  9995","2 51110  53.2161 285.1355 0001911  47.2824 312.8328 15.08856375 35313","2022-005G","51110","6917.830","95.437","541.017","538.373","0"
"GENERATED VIA SPACETRACK.ORG API","18 SPCS","51110","STARLINK-3344","PAYLOAD","U","22005G","2022-09-05 11:41:38","140800","15.08857389","0.0001962","53.2153","280.6751","48.553","311.5631","0","999","3657","0.00015333","0.00002154","0","3559334","0 STARLINK-3344","1 51110U 22005G   22248.48724700  .00002154  00000-0  15333-3 0  9997","2 51110  53.2153 280.6751 0001962  48.5530 311.5631 15.08857389 36576","2022-005G","51110","6917.827","95.436","541.050","538.335","0"
"GENERATED VIA SPACETRACK.ORG API","18 SPCS","51110","STARLINK-3344","PAYLOAD","U","22005G","2022-09-06 08:21:39","155040","15.08839302","0.0001903","53.2155","276.8092","44.5813","315.5332","0","999","3670","-0.00018923","-0.00003299","0","3560371","0 STARLINK-3344","1 51110U 22005G   22249.34836985 -.00003299  00000-0 -18923-3 0  9993","2 51110  53.2155 276.8092 0001903  44.5813 315.5332 15.08839302 36700","2022-005G","51110","6917.883","95.438","541.064","538.431","0"
"GENERATED VIA SPACETRACK.ORG API","18 SPCS","51110","STARLINK-3344","PAYLOAD","U","22005G","2022-09-06 11:32:26","26656","15.08838832","0.0001915","53.2159","276.2143","45.1726","314.9422","0","999","3561","-0.00013524","-0.0000244","0","3560801","0 STARLINK-3344","1 51110U 22005G   22249.48085679 -.00002440  00000-0 -13524-3 0  9993","2 51110  53.2159 276.2143 0001915  45.1726 314.9422 15.08838832 35617","2022-005G","51110","6917.884","95.438","541.074","538.424","0"
"GENERATED VIA SPACETRACK.ORG API","18 SPCS","51110","STARLINK-3344","PAYLOAD","U","22005G","2022-09-07 11:23:12","919776","15.08839823","0.0002047","53.2168","271.7542","51.7212","308.3964","0","999","3687","-0.000060471","-0.00001251","0","3561943","0 STARLINK-3344","1 51110U 22005G   22250.47445509 -.00001251  00000-0 -60471-4 0  9999","2 51110  53.2168 271.7542 0002047  51.7212 308.3964 15.08839823 36878","2022-005G","51110","6917.881","95.438","541.162","538.330","0"
"GENERATED VIA SPACETRACK.ORG API","18 SPCS","51110","STARLINK-3344","PAYLOAD","U","22005G","2022-09-07 11:23:12","919776","15.08839823","0.0002047","53.2168","271.7542","51.7212","308.3964","0","999","3576","-0.000060471","-0.00001251","0","3562217","0 STARLINK-3344","1 51110U 22005G   22250.47445509 -.00001251  00000-0 -60471-4 0  9999","2 51110  53.2168 271.7542 0002047  51.7212 308.3964 15.08839823 35765","2022-005G","51110","6917.881","95.438","541.162","538.330","0"
"GENERATED VIA SPACETRACK.ORG API","18 SPCS","51110","STARLINK-3344","PAYLOAD","U","22005G","2022-09-08 11:13:59","604672","15.08836791","0.0002059","53.2159","267.293","47.2526","312.864","0","999","3591","0.00018104","0.00002594","0","3563723","0 STARLINK-3344","1 51110U 22005G   22251.46805098  .00002594  00000-0  18104-3 0  9996","2 51110  53.2159 267.2930 0002059  47.2526 312.8640 15.08836791 35916","2022-005G","51110","6917.890","95.438","541.180","538.331","0"
"GENERATED VIA SPACETRACK.ORG API","18 SPCS","51110","STARLINK-3344","PAYLOAD","U","22005G","2022-09-08 17:35:32","3520","15.08840372","0.0002074","53.216","266.1035","47.6042","312.5126","0","999","3706","0.00019238","0.00002775","0","3564108","0 STARLINK-3344","1 51110U 22005G   22251.73300930  .00002775  00000-0  19238-3 0  9991","2 51110  53.2160 266.1035 0002074  47.6042 312.5126 15.08840372 37060","2022-005G","51110","6917.879","95.438","541.179","538.309","0"
